{
  "type": "FeatureCollection",
  "features": [
    {
      "type": "Feature",
      "properties": {
        "norad_id": 38833,
        "name": "GPS BIIF-3  (PRN 24)",
        "group": "gps-ops",
        "lat": -23.23278351048631,
        "lon": 132.43999197923873,
        "alt_km": 20205.36892505502,
        "timestamp": "2025-12-19T18:58:41.846937+00:00",
        "meta_object_name": "GPS BIIF-3  (PRN 24)",
        "meta_object_id": "2012-053A",
        "meta_epoch": "2025-12-18T20:00:59.061024",
        "meta_mean_motion": 2.0056508,
        "meta_eccentricity": 0.01760017,
        "meta_inclination": 53.559,
        "meta_ra_of_asc_node": 150.9891,
        "meta_arg_of_pericenter": 64.0868,
        "meta_mean_anomaly": 297.7017,
        "meta_ephemeris_type": 0,
        "meta_classification_type": "U",
        "meta_norad_cat_id": 38833,
        "meta_element_set_no": 999,
        "meta_rev_at_epoch": 9582,
        "meta_bstar": 0,
        "meta_mean_motion_dot": 5.8e-07,
        "meta_mean_motion_ddot": 0,
        "tle_line1": "1 38833U 12053A   25352.83401691  .00000058  00000+0  00000+0 0  9996",
        "tle_line2": "2 38833  53.5590 150.9891 0176001  64.0868 297.7017  2.00565080 95827"
      },
      "geometry": {
        "type": "Point",
        "coordinates": [
          132.43999197923873,
          -23.23278351048631
        ]
      }
    },
    {
      "type": "Feature",
      "properties": {
        "norad_id": 39166,
        "name": "GPS BIIF-4  (PRN 27)",
        "group": "gps-ops",
        "lat": 50.372620654037206,
        "lon": -24.862417093477053,
        "alt_km": 19835.531739405218,
        "timestamp": "2025-12-19T18:58:41.846955+00:00",
        "meta_object_name": "GPS BIIF-4  (PRN 27)",
        "meta_object_id": "2013-023A",
        "meta_epoch": "2025-12-19T04:43:12.891072",
        "meta_mean_motion": 2.0056472,
        "meta_eccentricity": 0.01383011,
        "meta_inclination": 54.6464,
        "meta_ra_of_asc_node": 276.3057,
        "meta_arg_of_pericenter": 48.6899,
        "meta_mean_anomaly": 312.5197,
        "meta_ephemeris_type": 0,
        "meta_classification_type": "U",
        "meta_norad_cat_id": 39166,
        "meta_element_set_no": 999,
        "meta_rev_at_epoch": 9227,
        "meta_bstar": 0,
        "meta_mean_motion_dot": -2.9e-07,
        "meta_mean_motion_ddot": 0,
        "tle_line1": "1 39166U 13023A   25353.19667698 -.00000029  00000+0  00000+0 0  9994",
        "tle_line2": "2 39166  54.6464 276.3057 0138301  48.6899 312.5197  2.00564720 92270"
      },
      "geometry": {
        "type": "Point",
        "coordinates": [
          -24.862417093477053,
          50.372620654037206
        ]
      }
    },
    {
      "type": "Feature",
      "properties": {
        "norad_id": 39533,
        "name": "GPS BIIF-5  (PRN 30)",
        "group": "gps-ops",
        "lat": 50.174448355454636,
        "lon": -141.2470261008363,
        "alt_km": 20364.30810670079,
        "timestamp": "2025-12-19T18:58:41.846978+00:00",
        "meta_object_name": "GPS BIIF-5  (PRN 30)",
        "meta_object_id": "2014-008A",
        "meta_epoch": "2025-12-17T04:42:21.782016",
        "meta_mean_motion": 2.00574699,
        "meta_eccentricity": 0.00793343,
        "meta_inclination": 53.632,
        "meta_ra_of_asc_node": 156.7429,
        "meta_arg_of_pericenter": 226.5757,
        "meta_mean_anomaly": 132.7662,
        "meta_ephemeris_type": 0,
        "meta_classification_type": "U",
        "meta_norad_cat_id": 39533,
        "meta_element_set_no": 999,
        "meta_rev_at_epoch": 8603,
        "meta_bstar": 0,
        "meta_mean_motion_dot": 7.8e-07,
        "meta_mean_motion_ddot": 0,
        "tle_line1": "1 39533U 14008A   25351.19608544  .00000078  00000+0  00000+0 0  9992",
        "tle_line2": "2 39533  53.6320 156.7429 0079334 226.5757 132.7662  2.00574699 86034"
      },
      "geometry": {
        "type": "Point",
        "coordinates": [
          -141.2470261008363,
          50.174448355454636
        ]
      }
    },
    {
      "type": "Feature",
      "properties": {
        "norad_id": 39741,
        "name": "GPS BIIF-6  (PRN 06)",
        "group": "gps-ops",
        "lat": -38.2770636587174,
        "lon": -170.11053924219124,
        "alt_km": 20188.52510257809,
        "timestamp": "2025-12-19T18:58:41.846991+00:00",
        "meta_object_name": "GPS BIIF-6  (PRN 06)",
        "meta_object_id": "2014-026A",
        "meta_epoch": "2025-12-18T23:24:45.525888",
        "meta_mean_motion": 2.00561009,
        "meta_eccentricity": 0.00393411,
        "meta_inclination": 56.5812,
        "meta_ra_of_asc_node": 338.5339,
        "meta_arg_of_pericenter": 319.0443,
        "meta_mean_anomaly": 40.6665,
        "meta_ephemeris_type": 0,
        "meta_classification_type": "U",
        "meta_norad_cat_id": 39741,
        "meta_element_set_no": 999,
        "meta_rev_at_epoch": 8492,
        "meta_bstar": 0,
        "meta_mean_motion_dot": -8.1e-07,
        "meta_mean_motion_ddot": 0,
        "tle_line1": "1 39741U 14026A   25352.97552692 -.00000081  00000+0  00000+0 0  9997",
        "tle_line2": "2 39741  56.5812 338.5339 0039341 319.0443  40.6665  2.00561009 84924"
      },
      "geometry": {
        "type": "Point",
        "coordinates": [
          -170.11053924219124,
          -38.2770636587174
        ]
      }
    },
    {
      "type": "Feature",
      "properties": {
        "norad_id": 40105,
        "name": "GPS BIIF-7  (PRN 09)",
        "group": "gps-ops",
        "lat": 11.137161006068006,
        "lon": -92.2316387363684,
        "alt_km": 20120.326742824967,
        "timestamp": "2025-12-19T18:58:41.847003+00:00",
        "meta_object_name": "GPS BIIF-7  (PRN 09)",
        "meta_object_id": "2014-045A",
        "meta_epoch": "2025-12-18T01:34:21.644256",
        "meta_mean_motion": 2.00572958,
        "meta_eccentricity": 0.00325491,
        "meta_inclination": 55.2322,
        "meta_ra_of_asc_node": 95.6864,
        "meta_arg_of_pericenter": 120.0469,
        "meta_mean_anomaly": 240.2601,
        "meta_ephemeris_type": 0,
        "meta_classification_type": "U",
        "meta_norad_cat_id": 40105,
        "meta_element_set_no": 999,
        "meta_rev_at_epoch": 8244,
        "meta_bstar": 0,
        "meta_mean_motion_dot": -3.8e-07,
        "meta_mean_motion_ddot": 0,
        "tle_line1": "1 40105U 14045A   25352.06552829 -.00000038  00000+0  00000+0 0  9998",
        "tle_line2": "2 40105  55.2322  95.6864 0032549 120.0469 240.2601  2.00572958 82445"
      },
      "geometry": {
        "type": "Point",
        "coordinates": [
          -92.2316387363684,
          11.137161006068006
        ]
      }
    },
    {
      "type": "Feature",
      "properties": {
        "norad_id": 40294,
        "name": "GPS BIIF-8  (PRN 03)",
        "group": "gps-ops",
        "lat": -53.72779410096285,
        "lon": -79.28917495848185,
        "alt_km": 20349.042070383206,
        "timestamp": "2025-12-19T18:58:41.847014+00:00",
        "meta_object_name": "GPS BIIF-8  (PRN 03)",
        "meta_object_id": "2014-068A",
        "meta_epoch": "2025-12-18T10:36:49.514400",
        "meta_mean_motion": 2.0056529,
        "meta_eccentricity": 0.00608014,
        "meta_inclination": 56.862,
        "meta_ra_of_asc_node": 37.9254,
        "meta_arg_of_pericenter": 69.0723,
        "meta_mean_anomaly": 291.6423,
        "meta_ephemeris_type": 0,
        "meta_classification_type": "U",
        "meta_norad_cat_id": 40294,
        "meta_element_set_no": 999,
        "meta_rev_at_epoch": 8158,
        "meta_bstar": 0,
        "meta_mean_motion_dot": -6.7e-07,
        "meta_mean_motion_ddot": 0,
        "tle_line1": "1 40294U 14068A   25352.44223975 -.00000067  00000+0  00000+0 0  9993",
        "tle_line2": "2 40294  56.8620  37.9254 0060801  69.0723 291.6423  2.00565290 81588"
      },
      "geometry": {
        "type": "Point",
        "coordinates": [
          -79.28917495848185,
          -53.72779410096285
        ]
      }
    },
    {
      "type": "Feature",
      "properties": {
        "norad_id": 40534,
        "name": "GPS BIIF-9  (PRN 26)",
        "group": "gps-ops",
        "lat": 14.538210219187071,
        "lon": 20.4178444974104,
        "alt_km": 20333.96817930498,
        "timestamp": "2025-12-19T18:58:41.847026+00:00",
        "meta_object_name": "GPS BIIF-9  (PRN 26)",
        "meta_object_id": "2015-013A",
        "meta_epoch": "2025-12-18T13:43:57.304128",
        "meta_mean_motion": 2.00562317,
        "meta_eccentricity": 0.01072792,
        "meta_inclination": 53.1969,
        "meta_ra_of_asc_node": 211.6486,
        "meta_arg_of_pericenter": 38.6162,
        "meta_mean_anomaly": 322.2412,
        "meta_ephemeris_type": 0,
        "meta_classification_type": "U",
        "meta_norad_cat_id": 40534,
        "meta_element_set_no": 999,
        "meta_rev_at_epoch": 7820,
        "meta_bstar": 0,
        "meta_mean_motion_dot": 8.6e-07,
        "meta_mean_motion_ddot": 0,
        "tle_line1": "1 40534U 15013A   25352.57219102  .00000086  00000+0  00000+0 0  9992",
        "tle_line2": "2 40534  53.1969 211.6486 0107279  38.6162 322.2412  2.00562317 78200"
      },
      "geometry": {
        "type": "Point",
        "coordinates": [
          20.4178444974104,
          14.538210219187071
        ]
      }
    }
  ]
}